{
    "links": {
        "self": "http://www.neowsapp.com/rest/v1/neo/3485808?api_key=iIulBulltgU6a56xZRHN4H3l9WmuAYTsLGpBGhQ2"
    },
    "id": "3485808",
    "neo_reference_id": "3485808",
    "name": "(2010 AN60)",
    "designation": "2010 AN60",
    "nasa_jpl_url": "http://ssd.jpl.nasa.gov/sbdb.cgi?sstr=3485808",
    "absolute_magnitude_h": 26.9,
    "estimated_diameter": {
        "kilometers": {
            "estimated_diameter_min": 0.0110803882,
            "estimated_diameter_max": 0.0247765013
        },
        "meters": {
            "estimated_diameter_min": 11.0803882126,
            "estimated_diameter_max": 24.7765012606
        },
        "miles": {
            "estimated_diameter_min": 0.0068850319,
            "estimated_diameter_max": 0.0153953994
        },
        "feet": {
            "estimated_diameter_min": 36.3529808636,
            "estimated_diameter_max": 81.2877363957
        }
    },
    "is_potentially_hazardous_asteroid": false,
    "close_approach_data": [
        {
            "close_approach_date": "2010-01-12",
            "close_approach_date_full": "2010-Jan-12 22:26",
            "epoch_date_close_approach": 1263335160000,
            "relative_velocity": {
                "kilometers_per_second": "12.7503136229",
                "kilometers_per_hour": "45901.1290425656",
                "miles_per_hour": "28521.1765431431"
            },
            "miss_distance": {
                "astronomical": "0.0099065025",
                "lunar": "3.8536294725",
                "kilometers": "1481991.673149675",
                "miles": "920866.924528515"
            },
            "orbiting_body": "Earth"
        },
        {
            "close_approach_date": "2109-01-31",
            "close_approach_date_full": "2109-Jan-31 20:10",
            "epoch_date_close_approach": 4389106200000,
            "relative_velocity": {
                "kilometers_per_second": "19.7620133676",
                "kilometers_per_hour": "71143.2481232617",
                "miles_per_hour": "44205.6477019234"
            },
            "miss_distance": {
                "astronomical": "0.2425598016",
                "lunar": "94.3557628224",
                "kilometers": "36286429.666982592",
                "miles": "22547341.8609280896"
            },
            "orbiting_body": "Earth"
        },
        {
            "close_approach_date": "2111-09-10",
            "close_approach_date_full": "2111-Sep-10 00:12",
            "epoch_date_close_approach": 4471287120000,
            "relative_velocity": {
                "kilometers_per_second": "21.8080329457",
                "kilometers_per_hour": "78508.9186046863",
                "miles_per_hour": "48782.3888963397"
            },
            "miss_distance": {
                "astronomical": "0.32898316",
                "lunar": "127.97444924",
                "kilometers": "49215180.0018692",
                "miles": "30580894.79822696"
            },
            "orbiting_body": "Earth"
        }
    ],
    "orbital_data": {
        "orbit_id": "9",
        "orbit_determination_date": "2017-04-06 08:58:35",
        "first_observation_date": "2010-01-15",
        "last_observation_date": "2010-01-19",
        "data_arc_in_days": 4,
        "observations_used": 34,
        "orbit_uncertainty": "8",
        "minimum_orbit_intersection": ".00812723",
        "jupiter_tisserand_invariant": "3.613",
        "epoch_osculation": "2455212.5",
        "eccentricity": ".5737656203735638",
        "semi_major_axis": "2.001221759843681",
        "inclination": "4.554016985465377",
        "ascending_node_longitude": "297.5921654361387",
        "orbital_period": "1034.049315663704",
        "perihelion_distance": ".8529895153018964",
        "perihelion_argument": "123.3604388890925",
        "aphelion_distance": "3.149454004385467",
        "perihelion_time": "2455173.341977551479",
        "mean_anomaly": "13.63270384490267",
        "mean_motion": ".3481458713300671",
        "equinox": "J2000",
        "orbit_class": {
            "orbit_class_type": "APO",
            "orbit_class_description": "Near-Earth asteroid orbits which cross the Earth’s orbit similar to that of 1862 Apollo",
            "orbit_class_range": "a (semi-major axis) > 1.0 AU; q (perihelion) < 1.017 AU"
        }
    },
    "is_sentry_object": false
}